Skip Page Navigation
NASA Logo - Jet Propulsion Laboratory				+ View the NASA Portal
+ Center for Near-Earth Object Studies			
JPL Home	Earth	Solar System	Stars & Galaxies	Technology

JPL Solar System Dynamics
BODIES		ORBITS		EPHEMERIDES		TOOLS		PHYSICAL DATA		DISCOVERY		FAQ		SITE MAP

IMPORTANT: The SSD Announcement email list is now available. Major changes are coming in the near future, including possible hostname and/or URL changes. To be notified of such changes, subscribe to this email list.

Please visit this page for more details.


Don't show this message again
HORIZONS Web-Interface
This tool provides a web-based limited interface to JPL's HORIZONS system which can be used to generate ephemerides for solar-system bodies. Full access to HORIZONS features is available via the primary telnet interface. HORIZONS system news shows recent changes and improvements. A web-interface tutorial is available to assist new users.
Current Settings
Ephemeris Type [change] : 	ELEMENTS
Target Body [change] : 	Miranda (UV) [705]
Center [change] : 	Uranus System Barycenter [500@7]
Time Span [change] : 	Start=JD 2458850.0, Stop=JD 2464329.0, Intervals=500
Table Settings [change] : 	CSV format=YES
Display/Output [change] : 	default (formatted HTML)
Object Data Page
 Revised: Jun 17, 2016             Miranda / (Uranus)                       705

 SATELLITE PHYSICAL PROPERTIES:
  Radius (km)           = 240x234.2x232.9   Density (g cm^-3)   =  1.20 +- 0.14
  Mass (10^20 kg )      =  0.659 +- 0.075   Geometric Albedo    =  0.27 
                                            V(1,0)              = +3.6 

 SATELLITE ORBITAL DATA:
  Semi-major axis, a (km) = 129.8 (10^3)    Orbital period      =  1.413 d
  Eccentricity, e         =   0.0027        Rotational period   = Synchronous
  Inclination, i  (deg)   =   4.22
Results
*******************************************************************************
Ephemeris / WWW_USER Fri May 15 20:19:05 2020 Pasadena, USA      / Horizons    
*******************************************************************************
Target body name: Miranda (705)                   {source: ura111}
Center body name: Uranus Barycenter (7)           {source: DE431mx}
Center-site name: BODY CENTER
*******************************************************************************
Start time      : A.D. 2020-Jan-01 12:00:00.0000 TDB
Stop  time      : A.D. 2035-Jan-01 12:00:00.0000 TDB
Step-size       : 500 steps
*******************************************************************************
Center geodetic : 0.00000000,0.00000000,0.0000000 {E-lon(deg),Lat(deg),Alt(km)}
Center cylindric: 0.00000000,0.00000000,0.0000000 {E-lon(deg),Dxy(km),Dz(km)}
Center radii    : (undefined)                                                  
Keplerian GM    : 1.2920219363850306E-08 au^3/d^2
Output units    : AU-D, deg, Julian Day Number (Tp)                            
Output type     : GEOMETRIC osculating elements
Output format   : 10
Reference frame : ICRF/J2000.0                                                 
Coordinate systm: Ecliptic and Mean Equinox of Reference Epoch                 
*******************************************************************************
            JDTDB,            Calendar Date (TDB),                     EC,                     QR,                     IN,                     OM,                      W,                     Tp,                      N,                     MA,                     TA,                      A,                     AD,                     PR,
**************************************************************************************************************************************************************************************************************************************************************************************************************************************************
$$SOE
2460822.440000000, A.D. 2025-May-26 22:33:36.0000,  1.544285895008700E-03,  8.665860871943361E-04,  1.000004471661726E+02,  1.638278773032809E+02,  4.005948008589008E+01,  2.460821971415299E+06,  2.547025059010951E+02,  1.193496974557490E+02,  1.195037995208033E+02,  8.679264137129387E-04,  8.692667402315414E-04,  1.413413655772172E+00,
2460833.398000000, A.D. 2025-Jun-06 21:33:07.2000,  1.850466820461819E-03,  8.668483839616756E-04,  9.995873158822251E+01,  1.638035297510757E+02,  4.090393171944120E+01,  2.460833282395198E+06,  2.544698139217135E+02,  2.941793254617469E+01,  2.952229566009780E+01,  8.684554319235000E-04,  8.700624798853244E-04,  1.414706107777296E+00,
2460844.356000000, A.D. 2025-Jun-17 20:32:38.4000,  1.255258777169625E-03,  8.667433438165696E-04,  9.991973134997492E+01,  1.637804188153269E+02,  3.427707613772928E+01,  2.460844564193959E+06,  2.547437641336761E+02,  3.069638871344438E+02,  3.068488467588747E+02,  8.678326984283868E-04,  8.689220530402040E-04,  1.413184739670766E+00,
2460855.314000000, A.D. 2025-Jun-28 19:32:09.6000,  1.148690411377936E-03,  8.672458923749969E-04,  9.987759376888941E+01,  1.637568136794129E+02,  3.762537418621862E+01,  2.460855885458880E+06,  2.545631074738873E+02,  2.145276518650946E+02,  2.144531315174463E+02,  8.682432350538470E-04,  8.692405777326973E-04,  1.414187639255340E+00,
2460866.272000000, A.D. 2025-Jul-09 18:31:40.8000,  1.472216646078924E-03,  8.664521592539464E-04,  9.983732716637358E+01,  1.637338066208058E+02,  3.596994471965382E+01,  2.460865773124336E+06,  2.547891462281597E+02,  1.271081044775406E+02,  1.272424960210807E+02,  8.677296452820268E-04,  8.690071313101073E-04,  1.412933028464351E+00,
2460877.230000000, A.D. 2025-Jul-20 17:31:12.0000,  1.399348067256096E-03,  8.668549966024235E-04,  9.979549359280510E+01,  1.637111817990680E+02,  3.992606208391527E+01,  2.460877096164705E+06,  2.546394330688859E+02,  3.407974370518932E+01,  3.416972748970733E+01,  8.680697282989621E-04,  8.692844599955008E-04,  1.413763750811570E+00,
2460888.188000000, A.D. 2025-Jul-31 16:30:43.2000,  1.139433291414657E-03,  8.665344635573798E-04,  9.975471465442818E+01,  1.636887971175192E+02,  4.832326948271002E+01,  2.460888436735751E+06,  2.548802112642805E+02,  2.966021792112900E+02,  2.964853577949759E+02,  8.675229480854947E-04,  8.685114326136095E-04,  1.412428207801204E+00,
2460899.146000000, A.D. 2025-Aug-11 15:30:14.4000,  1.207206152993408E-03,  8.669221068294147E-04,  9.971240951131978E+01,  1.636683987300799E+02,  3.962860758297091E+01,  2.460899710536621E+06,  2.546833536018783E+02,  2.162219202324080E+02,  2.161402751449184E+02,  8.679699254640480E-04,  8.690177440986812E-04,  1.413519945095245E+00,
2460910.104000000, A.D. 2025-Aug-22 14:29:45.6000,  1.333459067965478E-03,  8.662967750923900E-04,  9.967078669124429E+01,  1.636465942713455E+02,  2.916236833893657E+01,  2.460909564181391E+06,  2.549108252660339E+02,  1.376056072985420E+02,  1.377085050590748E+02,  8.674534888130861E-04,  8.686102025337820E-04,  1.412258579541655E+00,
2460921.062000000, A.D. 2025-Sep-02 13:29:16.8000,  1.327834202826622E-03,  8.670083895132338E-04,  9.962762095480711E+01,  1.636272569556872E+02,  5.479945687336778E+01,  2.460920972091350E+06,  2.545992059409732E+02,  2.289067077857231E+01,  2.294994712955663E+01,  8.681611635998274E-04,  8.693139376864209E-04,  1.413987128001739E+00,
2460932.020000000, A.D. 2025-Sep-13 12:28:48.0000,  1.346934810291731E-03,  8.665385919947380E-04,  9.958663342364672E+01,  1.636064392825347E+02,  5.804092242983897E+01,  2.460932292459401E+06,  2.547989719325911E+02,  2.905776247320779E+02,  2.904330398119938E+02,  8.677073372123750E-04,  8.688760824300119E-04,  1.412878542128657E+00,
2460942.978000000, A.D. 2025-Sep-24 11:28:19.2000,  1.017339569449108E-03,  8.675567563081468E-04,  9.954293892868846E+01,  1.635874477074050E+02,  3.724373945412896E+01,  2.460943519144588E+06,  2.544764846746012E+02,  2.222914274972824E+02,  2.222130553430877E+02,  8.684402549432028E-04,  8.693237535782588E-04,  1.414669023192189E+00,
2460953.936000000, A.D. 2025-Oct-05 10:27:50.4000,  1.187174695371505E-03,  8.669851246853607E-04,  9.950182180266125E+01,  1.635683066442341E+02,  5.232282558048268E+01,  2.460953472090921E+06,  2.546632471285326E+02,  1.181405923989514E+02,  1.182604676971577E+02,  8.680156108537536E-04,  8.690460970221467E-04,  1.413631546990768E+00,
2460964.894000000, A.D. 2025-Oct-16 09:27:21.6000,  1.741955977212450E-03,  8.670900506458590E-04,  9.945745023259387E+01,  1.635499816700618E+02,  6.136446563679841E+01,  2.460964815349828E+06,  2.544049160732316E+02,  2.000899045388958E+01,  2.007743171113703E+01,  8.686031190408977E-04,  8.701161874359363E-04,  1.415066994603093E+00,
2460975.852000000, A.D. 2025-Oct-27 08:26:52.8000,  1.603417772866931E-03,  8.668262588903411E-04,  9.941528029648897E+01,  1.635322974985463E+02,  4.743643081288626E+01,  2.460976068581540E+06,  2.545740407750874E+02,  3.048639622158766E+02,  3.047130302014601E+02,  8.682183756646115E-04,  8.696104924388818E-04,  1.414126903528451E+00,
2460986.810000000, A.D. 2025-Nov-07 07:26:24.0000,  1.025104497968882E-03,  8.677088874277938E-04,  9.937101830962685E+01,  1.635137900109524E+02,  4.104896701622224E+01,  2.460987351781088E+06,  2.544065972276005E+02,  2.221673170096949E+02,  2.220885356205137E+02,  8.685992924694366E-04,  8.694896975110795E-04,  1.415057643642520E+00,
2460997.768000000, A.D. 2025-Nov-18 06:25:55.2000,  1.421490235475674E-03,  8.668489570419708E-04,  9.932834506720779E+01,  1.634970384594277E+02,  5.514978572949050E+01,  2.460997300689477E+06,  2.546336249847732E+02,  1.189929726157550E+02,  1.191353270353319E+02,  8.680829284483431E-04,  8.693168998547156E-04,  1.413795998158246E+00,
2461008.726000000, A.D. 2025-Nov-29 05:25:26.4000,  1.778325220335827E-03,  8.668166241274610E-04,  9.928521105668351E+01,  1.634798084649505E+02,  5.006958376599632E+01,  2.461008588507453E+06,  2.545113894212932E+02,  3.499341911361966E+01,  3.511049706100330E+01,  8.683608521311584E-04,  8.699050801348556E-04,  1.414475009619673E+00,
